OBJECT_NAME,OBJECT_ID,EPOCH,MEAN_MOTION,ECCENTRICITY,INCLINATION,RA_OF_ASC_NODE,ARG_OF_PERICENTER,MEAN_ANOMALY,EPHEMERIS_TYPE,CLASSIFICATION_TYPE,NORAD_CAT_ID,ELEMENT_SET_NO,REV_AT_EPOCH,BSTAR,MEAN_MOTION_DOT,MEAN_MOTION_DDOT
STARLINK-31349,2024-056X,2026-06-08T12:01:53.160672,15.27570882,.00013464,43.0017,77.7705,203.1362,156.9430,0,U,59317,999,12511,.280144E-5,-.185E-5,0
STARLINK-31464,2024-056Y,2026-06-08T11:50:47.186880,15.27573657,.00010618,43.0049,77.7208,275.8130,84.2601,0,U,59318,999,12504,.100663E-6,-.259E-5,0
STARLINK-31402,2024-057A,2026-06-09T00:00:04.000320,15.30020148,.0005238,43.0012,343.6193,283.7111,201.4921,0,U,59320,999,587,.3887E-2,.116885E-2,0
STARLINK-31578,2024-057B,2026-06-08T09:03:10.665792,15.27563584,.00015909,43.0048,34.4806,253.4386,106.6291,0,U,59321,999,12371,-.50468235E-4,-.165E-4,0
STARLINK-31530,2024-057C,2026-06-08T20:52:52.478976,15.68206383,.0026692,42.9887,8.5667,268.5187,91.2622,0,U,59322,999,12405,.6979E-3,.82237E-3,0
STARLINK-31565,2024-057D,2026-06-07T10:04:47.523072,15.27585327,.0001261,43.0076,47.9865,94.3131,265.7865,0,U,59323,999,12347,.44971E-4,.976E-5,0
STARLINK-31570,2024-057E,2026-06-08T08:59:41.100864,15.27572515,.000142,43.0061,35.3255,279.7240,80.3452,0,U,59324,999,12370,-.74992675E-4,-.2325E-4,0
STARLINK-31611,2024-057F,2026-06-08T09:01:32.130048,15.27563698,.00020579,43.0063,35.3374,274.6263,85.4354,0,U,59325,999,12370,-.35162431E-4,-.1229E-4,0
STARLINK-31632,2024-057G,2026-06-08T09:51:15.288768,15.27568226,.00014601,43.0059,45.9754,250.3044,109.7650,0,U,59326,999,12358,-.39999083E-4,-.1362E-4,0
STARLINK-31599,2024-057H,2026-06-07T22:28:07.762944,15.27574630,.0001233,43.0034,37.1925,275.6349,84.4362,0,U,59327,999,12364,.56731E-5,-.106E-5,0
STARLINK-31614,2024-057J,2026-06-07T08:55:51.648384,15.27584899,.00008494,43.0095,40.7029,290.6084,69.4677,0,U,59328,999,12355,.60377548E-4,.14E-4,0
STARLINK-31493,2024-057K,2026-06-07T22:39:14.370048,15.27570829,.0000301,42.9996,37.2530,203.8134,156.2704,0,U,59329,999,12364,-.58927E-5,-.424E-5,0
STARLINK-31634,2024-057L,2026-06-08T08:41:10.562784,15.27571830,.0001426,43.0002,35.2245,259.9506,100.1185,0,U,59330,999,12370,-.10094E-4,-.54E-5,0
STARLINK-31633,2024-057M,2026-06-08T08:37:27.712128,15.27550701,.0001573,42.9985,35.2094,262.7333,97.3340,0,U,59331,999,12370,.19396E-3,.5074E-4,0
STARLINK-31594,2024-057N,2026-06-08T09:56:48.142176,15.27571534,.00014254,43.0051,46.0066,268.8189,91.2499,0,U,59332,999,12358,.54825634E-3,.14851E-3,0
STARLINK-31572,2024-057P,2026-06-07T23:01:26.521536,15.27547606,.00016271,43.0045,48.6061,260.5934,99.4734,0,U,59333,999,12351,-.13063479E-3,-.3852E-4,0
STARLINK-31573,2024-057Q,2026-06-08T09:05:02.117472,15.27560764,.00004572,43.0013,34.4866,280.7112,79.3688,0,U,59334,999,12371,-.42364437E-4,-.1427E-4,0
STARLINK-31588,2024-057R,2026-06-08T23:21:40.344768,15.27581395,.0001345,43.0051,31.2146,264.7060,95.3638,0,U,59335,999,12380,.51653E-4,.1159E-4,0
STARLINK-31596,2024-057S,2026-06-08T21:53:03.959232,15.27580966,.0002162,43.0099,31.6106,271.1317,88.9287,0,U,59336,999,12379,.35535E-4,.715E-5,0
STARLINK-31612,2024-057T,2026-06-08T08:18:58.749120,15.27581118,.00013805,43.0078,35.1116,277.5849,82.4846,0,U,59337,999,12370,-.23896399E-3,-.6832E-4,0
STARLINK-31550,2024-057U,2026-06-07T09:23:35.923200,15.27577263,.0003921,43.0102,40.8389,265.2348,94.8056,0,U,59338,999,12355,.20361E-5,-.207E-5,0
STARLINK-31473,2024-057V,2026-06-07T22:37:24.700800,15.27525107,.00019361,42.9856,37.2309,287.6656,72.3984,0,U,59339,999,12364,.32450496E-3,.8664E-4,0
STARLINK-31562,2024-057W,2026-06-08T22:53:23.597376,15.27585345,.0002216,43.0032,46.6487,289.7840,70.2772,0,U,59340,999,12362,.10351E-3,.2587E-4,0
STARLINK-31600,2024-057X,2026-06-08T09:42:42.106464,15.27566572,.00007774,43.0028,42.4707,228.6478,131.4307,0,U,59341,999,12362,-.68240453E-4,-.2138E-4,0
STARLINK-31628,2024-057Y,2026-06-07T23:07:00.192288,15.27572694,.00016223,43.0033,37.3950,276.8488,83.2179,0,U,59342,999,12364,-.10416758E-3,-.3127E-4,0
YUNHAI-3 02,2024-058A,2026-06-09T04:32:28.126752,14.13326283,.0001855,98.8194,168.1546,69.0683,291.0688,0,U,59343,999,11361,.18485E-4,-.9E-7,0
EUTELSAT 36D,2024-059A,2026-06-09T02:47:38.778720,1.00270691,.0000331,0.0180,21.1991,164.7241,149.3696,0,U,59346,999,806,0,.172E-5,0
STARLINK-31605,2024-060A,2026-06-09T02:00:33.027840,15.27593655,.000064,43.0004,93.0471,219.7037,140.3768,0,U,59348,999,12410,.70486E-4,.1679E-4,0
STARLINK-31532,2024-060B,2026-06-08T02:59:26.875104,15.27575215,.00007309,43.0000,109.1306,256.8203,103.2568,0,U,59349,999,12394,.56269508E-4,.1287E-4,0
STARLINK-31593,2024-060C,2026-06-09T03:23:21.083136,15.27599585,.0001042,42.9995,103.0024,262.7308,97.3425,0,U,59350,999,12405,.1204E-3,.3055E-4,0
