STARLINK-31349          
1 59317U 24056X   26159.50130973 -.00000185  00000+0  28014-5 0  9997
2 59317  43.0017  77.7705 0001346 203.1362 156.9430 15.27570882125119
STARLINK-31464          
1 59318U 24056Y   26159.49360170 -.00000259  00000+0  10066-6 0  9991
2 59318  43.0049  77.7208 0001061 275.8130  84.2601 15.27573657125044
STARLINK-31402          
1 59320U 24057A   26160.00004630  .00116885  00000+0  38870-2 0  9991
2 59320  43.0012 343.6193 0005238 283.7111 201.4921 15.30020148  5874
STARLINK-31578          
1 59321U 24057B   26159.37720678 -.00001650  00000+0 -50468-4 0  9991
2 59321  43.0048  34.4806 0001590 253.4386 106.6291 15.27563584123717
STARLINK-31530          
1 59322U 24057C   26159.87005184  .00082237  00000+0  69790-3 0  9990
2 59322  42.9887   8.5667 0026692 268.5187  91.2622 15.68206383124051
STARLINK-31565          
1 59323U 24057D   26158.41999448  .00000976  00000+0  44971-4 0  9990
2 59323  43.0076  47.9865 0001261  94.3131 265.7865 15.27585327123475
STARLINK-31570          
1 59324U 24057E   26159.37478126 -.00002325  00000+0 -74993-4 0  9991
2 59324  43.0061  35.3255 0001420 279.7240  80.3452 15.27572515123705
STARLINK-31611          
1 59325U 24057F   26159.37606632 -.00001229  00000+0 -35162-4 0  9994
2 59325  43.0063  35.3374 0002057 274.6263  85.4354 15.27563698123705
STARLINK-31632          
1 59326U 24057G   26159.41059362 -.00001362  00000+0 -39999-4 0  9992
2 59326  43.0059  45.9754 0001460 250.3044 109.7650 15.27568226123582
STARLINK-31599          
1 59327U 24057H   26158.93620096 -.00000106  00000+0  56731-5 0  9995
2 59327  43.0034  37.1925 0001233 275.6349  84.4362 15.27574630123647
STARLINK-31614          
1 59328U 24057J   26158.37212556  .00001400  00000+0  60378-4 0  9990
2 59328  43.0095  40.7029 0000849 290.6084  69.4677 15.27584899123555
STARLINK-31493          
1 59329U 24057K   26158.94391632 -.00000424  00000+0 -58927-5 0  9992
2 59329  42.9996  37.2530 0000301 203.8134 156.2704 15.27570829123641
STARLINK-31634          
1 59330U 24057L   26159.36192781 -.00000540  00000+0 -10094-4 0  9996
2 59330  43.0002  35.2245 0001426 259.9506 100.1185 15.27571830123709
STARLINK-31633          
1 59331U 24057M   26159.35934852  .00005074  00000+0  19396-3 0  9997
2 59331  42.9985  35.2094 0001573 262.7333  97.3340 15.27550701123707
STARLINK-31594          
1 59332U 24057N   26159.41444609  .00014851  00000+0  54826-3 0  9991
2 59332  43.0051  46.0066 0001425 268.8189  91.2499 15.27571534123586
STARLINK-31572          
1 59333U 24057P   26158.95933474 -.00003852  00000+0 -13063-3 0  9992
2 59333  43.0045  48.6061 0001627 260.5934  99.4734 15.27547606123512
STARLINK-31573          
1 59334U 24057Q   26159.37849673 -.00001427  00000+0 -42364-4 0  9990
2 59334  43.0013  34.4866 0000457 280.7112  79.3688 15.27560764123713
STARLINK-31588          
1 59335U 24057R   26159.97338362  .00001159  00000+0  51653-4 0  9996
2 59335  43.0051  31.2146 0001345 264.7060  95.3638 15.27581395123809
STARLINK-31596          
1 59336U 24057S   26159.91185138  .00000715  00000+0  35535-4 0  9990
2 59336  43.0099  31.6106 0002162 271.1317  88.9287 15.27580966123796
STARLINK-31612          
1 59337U 24057T   26159.34651330 -.00006832  00000+0 -23896-3 0  9994
2 59337  43.0078  35.1116 0001380 277.5849  82.4846 15.27581118123706
STARLINK-31550          
1 59338U 24057U   26158.39138800 -.00000207  00000+0  20361-5 0  9996
2 59338  43.0102  40.8389 0003921 265.2348  94.8056 15.27577263123550
STARLINK-31473          
1 59339U 24057V   26158.94264700  .00008664  00000+0  32450-3 0  9991
2 59339  42.9856  37.2309 0001936 287.6656  72.3984 15.27525107123642
STARLINK-31562          
1 59340U 24057W   26159.95374534  .00002587  00000+0  10351-3 0  9996
2 59340  43.0032  46.6487 0002216 289.7840  70.2772 15.27585345123623
STARLINK-31600          
1 59341U 24057X   26159.40465401 -.00002138  00000+0 -68240-4 0  9996
2 59341  43.0028  42.4707 0000777 228.6478 131.4307 15.27566572123622
STARLINK-31628          
1 59342U 24057Y   26158.96319667 -.00003127  00000+0 -10417-3 0  9990
2 59342  43.0033  37.3950 0001622 276.8488  83.2179 15.27572694123643
YUNHAI-3 02             
1 59343U 24058A   26160.18921443 -.00000009  00000+0  18485-4 0  9999
2 59343  98.8194 168.1546 0001855  69.0683 291.0688 14.13326283113616
EUTELSAT 36D            
1 59346U 24059A   26160.11642105  .00000172  00000+0  00000+0 0  9990
2 59346   0.0180  21.1991 0000331 164.7241 149.3696  1.00270691  8061
STARLINK-31605          
1 59348U 24060A   26160.08371560  .00001679  00000+0  70486-4 0  9997
2 59348  43.0004  93.0471 0000640 219.7037 140.3768 15.27593655124100
STARLINK-31532          
1 59349U 24060B   26159.12461661  .00001287  00000+0  56270-4 0  9993
2 59349  43.0000 109.1306 0000730 256.8203 103.2568 15.27575215123949
STARLINK-31593          
1 59350U 24060C   26160.14121624  .00003055  00000+0  12040-3 0  9992
2 59350  42.9995 103.0024 0001042 262.7308  97.3425 15.27599585124055
